ATLAS CENTAUR 2         
1 00694U 63047A   26051.01225163  .00001183  00000+0  13003-3 0  9995
2 00694  30.3574 294.4324 0548143 284.5043  69.5381 14.12014002129124
THOR AGENA D R/B        
1 00733U 64002A   26051.00898844  .00000199  00000+0  88545-4 0  9992
2 00733  99.1230  63.3832 0032144 311.1790  48.6621 14.34008683235767
SL-3 R/B                
1 00877U 64053B   26051.10421402  .00000323  00000+0  86776-4 0  9993
2 00877  65.0776  22.7908 0078962 297.7914  61.5197 14.61348612264225
SL-8 R/B                
1 02802U 67045B   26051.06679096  .00000361  00000+0  10735-3 0  9999
2 02802  74.0118  20.9978 0063487  31.5561 328.9379 14.45602810 86476
SL-8 R/B                
1 03230U 68040B   26051.13945482  .00002626  00000+0  19638-3 0  9991
2 03230  74.0335 349.5482 0024687 178.8459 181.2791 15.03119203 87375
OAO 2                   
1 03597U 68110A   26051.12219804  .00000223  00000+0  65159-4 0  9997
2 03597  34.9948   3.3048 0004943  53.3860 306.7285 14.47296151 16554
ISIS 1                  
1 03669U 69009A   26051.19494225  .00000182  00000+0  11369-3 0  9991
2 03669  88.4555 157.2148 1707836 124.4590 252.9890 11.30407682346556
SERT 2                  
1 04327U 70009A   26051.08902336  .00000000  00000+0  56798-4 0  9995
2 04327  99.2738 355.1480 0004358 201.1499 169.4719 13.58727815777508
SL-3 R/B                
1 05118U 71028B   26051.14863580  .00030714  00000+0  38260-3 0  9998
2 05118  81.2323  73.6723 0016048 356.1074   4.0051 15.59598347985939
ASTEX 1                 
1 05560U 71089A   26050.82003953  .00000461  00000+0  11723-3 0  9991
2 05560  92.7143 145.9794 0017143 139.2089 221.0404 14.50747930859714
SL-8 R/B                
1 05730U 71119B   26050.91129740  .00014412  00000+0  74758-3 0  9995
2 05730  73.8859 208.9346 0552103 179.2383 180.9754 14.37283159652930
OAO 3 (COPERNICUS)      
1 06153U 72065A   26051.02027797  .00000351  00000+0  76446-4 0  9992
2 06153  35.0065  37.9818 0006401  10.6969  32.0025 14.59981344843616
