CCSDS_OMM_VERS = 2.0
CREATION_DATE  = 
ORIGINATOR     = 

OBJECT_NAME    = ATLAS CENTAUR 2
OBJECT_ID      = 1963-047A
CENTER_NAME    = EARTH
REF_FRAME      = TEME
TIME_SYSTEM    = UTC
MEAN_ELEMENT_THEORY = SGP/SGP4

EPOCH          = 2026-02-20T00:17:38.540832
MEAN_MOTION    = 14.12014002
ECCENTRICITY   = .0548143
INCLINATION    = 30.3574
RA_OF_ASC_NODE = 294.4324
ARG_OF_PERICENTER = 284.5043
MEAN_ANOMALY   = 69.5381

EPHEMERIS_TYPE = 0
CLASSIFICATION_TYPE = U
NORAD_CAT_ID   = 694
ELEMENT_SET_NO = 999
REV_AT_EPOCH   = 12912
BSTAR          = .13003E-3
MEAN_MOTION_DOT = .1183E-4
MEAN_MOTION_DDOT = 0

CCSDS_OMM_VERS = 2.0
CREATION_DATE  = 
ORIGINATOR     = 

OBJECT_NAME    = THOR AGENA D R/B
OBJECT_ID      = 1964-002A
CENTER_NAME    = EARTH
REF_FRAME      = TEME
TIME_SYSTEM    = UTC
MEAN_ELEMENT_THEORY = SGP/SGP4

EPOCH          = 2026-02-20T00:12:56.601216
MEAN_MOTION    = 14.34008683
ECCENTRICITY   = .0032144
INCLINATION    = 99.1230
RA_OF_ASC_NODE = 63.3832
ARG_OF_PERICENTER = 311.1790
MEAN_ANOMALY   = 48.6621

EPHEMERIS_TYPE = 0
CLASSIFICATION_TYPE = U
NORAD_CAT_ID   = 733
ELEMENT_SET_NO = 999
REV_AT_EPOCH   = 23576
BSTAR          = .88545E-4
MEAN_MOTION_DOT = .199E-5
MEAN_MOTION_DDOT = 0

CCSDS_OMM_VERS = 2.0
CREATION_DATE  = 
ORIGINATOR     = 

OBJECT_NAME    = SL-3 R/B
OBJECT_ID      = 1964-053B
CENTER_NAME    = EARTH
REF_FRAME      = TEME
TIME_SYSTEM    = UTC
MEAN_ELEMENT_THEORY = SGP/SGP4

EPOCH          = 2026-02-20T02:30:04.091328
MEAN_MOTION    = 14.61348612
ECCENTRICITY   = .0078962
INCLINATION    = 65.0776
RA_OF_ASC_NODE = 22.7908
ARG_OF_PERICENTER = 297.7914
MEAN_ANOMALY   = 61.5197

EPHEMERIS_TYPE = 0
CLASSIFICATION_TYPE = U
NORAD_CAT_ID   = 877
ELEMENT_SET_NO = 999
REV_AT_EPOCH   = 26422
BSTAR          = .86776E-4
MEAN_MOTION_DOT = .323E-5
MEAN_MOTION_DDOT = 0

CCSDS_OMM_VERS = 2.0
CREATION_DATE  = 
ORIGINATOR     = 

OBJECT_NAME    = SL-8 R/B
OBJECT_ID      = 1967-045B
CENTER_NAME    = EARTH
REF_FRAME      = TEME
TIME_SYSTEM    = UTC
MEAN_ELEMENT_THEORY = SGP/SGP4

EPOCH          = 2026-02-20T01:36:10.738944
MEAN_MOTION    = 14.45602810
ECCENTRICITY   = .0063487
INCLINATION    = 74.0118
RA_OF_ASC_NODE = 20.9978
ARG_OF_PERICENTER = 31.5561
MEAN_ANOMALY   = 328.9379

EPHEMERIS_TYPE = 0
CLASSIFICATION_TYPE = U
NORAD_CAT_ID   = 2802
ELEMENT_SET_NO = 999
REV_AT_EPOCH   = 8647
BSTAR          = .10735E-3
MEAN_MOTION_DOT = .361E-5
MEAN_MOTION_DDOT = 0

CCSDS_OMM_VERS = 2.0
CREATION_DATE  = 
ORIGINATOR     = 

OBJECT_NAME    = SL-8 R/B
OBJECT_ID      = 1968-040B
CENTER_NAME    = EARTH
REF_FRAME      = TEME
TIME_SYSTEM    = UTC
MEAN_ELEMENT_THEORY = SGP/SGP4

EPOCH          = 2026-02-20T03:20:48.896448
MEAN_MOTION    = 15.03119203
ECCENTRICITY   = .0024687
INCLINATION    = 74.0335
RA_OF_ASC_NODE = 349.5482
ARG_OF_PERICENTER = 178.8459
MEAN_ANOMALY   = 181.2791

EPHEMERIS_TYPE = 0
CLASSIFICATION_TYPE = U
NORAD_CAT_ID   = 3230
ELEMENT_SET_NO = 999
REV_AT_EPOCH   = 8737
BSTAR          = .19638E-3
MEAN_MOTION_DOT = .2626E-4
MEAN_MOTION_DDOT = 0

CCSDS_OMM_VERS = 2.0
CREATION_DATE  = 
ORIGINATOR     = 

OBJECT_NAME    = OAO 2
OBJECT_ID      = 1968-110A
CENTER_NAME    = EARTH
REF_FRAME      = TEME
TIME_SYSTEM    = UTC
MEAN_ELEMENT_THEORY = SGP/SGP4

EPOCH          = 2026-02-20T02:55:57.910656
MEAN_MOTION    = 14.47296151
ECCENTRICITY   = .0004943
INCLINATION    = 34.9948
RA_OF_ASC_NODE = 3.3048
ARG_OF_PERICENTER = 53.3860
MEAN_ANOMALY   = 306.7285

EPHEMERIS_TYPE = 0
CLASSIFICATION_TYPE = U
NORAD_CAT_ID   = 3597
ELEMENT_SET_NO = 999
REV_AT_EPOCH   = 1655
BSTAR          = .65159E-4
MEAN_MOTION_DOT = .223E-5
MEAN_MOTION_DDOT = 0

CCSDS_OMM_VERS = 2.0
CREATION_DATE  = 
ORIGINATOR     = 

OBJECT_NAME    = ISIS 1
OBJECT_ID      = 1969-009A
CENTER_NAME    = EARTH
REF_FRAME      = TEME
TIME_SYSTEM    = UTC
MEAN_ELEMENT_THEORY = SGP/SGP4

EPOCH          = 2026-02-20T04:40:43.010400
MEAN_MOTION    = 11.30407682
ECCENTRICITY   = .1707836
INCLINATION    = 88.4555
RA_OF_ASC_NODE = 157.2148
ARG_OF_PERICENTER = 124.4590
MEAN_ANOMALY   = 252.9890

EPHEMERIS_TYPE = 0
CLASSIFICATION_TYPE = U
NORAD_CAT_ID   = 3669
ELEMENT_SET_NO = 999
REV_AT_EPOCH   = 34655
BSTAR          = .11369E-3
MEAN_MOTION_DOT = .182E-5
MEAN_MOTION_DDOT = 0

CCSDS_OMM_VERS = 2.0
CREATION_DATE  = 
ORIGINATOR     = 

OBJECT_NAME    = SERT 2
OBJECT_ID      = 1970-009A
CENTER_NAME    = EARTH
REF_FRAME      = TEME
TIME_SYSTEM    = UTC
MEAN_ELEMENT_THEORY = SGP/SGP4

EPOCH          = 2026-02-20T02:08:11.618304
MEAN_MOTION    = 13.58727815
ECCENTRICITY   = .0004358
INCLINATION    = 99.2738
RA_OF_ASC_NODE = 355.1480
ARG_OF_PERICENTER = 201.1499
MEAN_ANOMALY   = 169.4719

EPHEMERIS_TYPE = 0
CLASSIFICATION_TYPE = U
NORAD_CAT_ID   = 4327
ELEMENT_SET_NO = 999
REV_AT_EPOCH   = 77750
BSTAR          = .56798E-4
MEAN_MOTION_DOT = 0
MEAN_MOTION_DDOT = 0

CCSDS_OMM_VERS = 2.0
CREATION_DATE  = 
ORIGINATOR     = 

OBJECT_NAME    = SL-3 R/B
OBJECT_ID      = 1971-028B
CENTER_NAME    = EARTH
REF_FRAME      = TEME
TIME_SYSTEM    = UTC
MEAN_ELEMENT_THEORY = SGP/SGP4

EPOCH          = 2026-02-20T03:34:02.133120
MEAN_MOTION    = 15.59598347
ECCENTRICITY   = .0016048
INCLINATION    = 81.2323
RA_OF_ASC_NODE = 73.6723
ARG_OF_PERICENTER = 356.1074
MEAN_ANOMALY   = 4.0051

EPHEMERIS_TYPE = 0
CLASSIFICATION_TYPE = U
NORAD_CAT_ID   = 5118
ELEMENT_SET_NO = 999
REV_AT_EPOCH   = 98593
BSTAR          = .3826E-3
MEAN_MOTION_DOT = .30714E-3
MEAN_MOTION_DDOT = 0

CCSDS_OMM_VERS = 2.0
CREATION_DATE  = 
ORIGINATOR     = 

OBJECT_NAME    = ASTEX 1
OBJECT_ID      = 1971-089A
CENTER_NAME    = EARTH
REF_FRAME      = TEME
TIME_SYSTEM    = UTC
MEAN_ELEMENT_THEORY = SGP/SGP4

EPOCH          = 2026-02-19T19:40:51.415392
MEAN_MOTION    = 14.50747930
ECCENTRICITY   = .00171439
INCLINATION    = 92.7143
RA_OF_ASC_NODE = 145.9794
ARG_OF_PERICENTER = 139.2089
MEAN_ANOMALY   = 221.0404

EPHEMERIS_TYPE = 0
CLASSIFICATION_TYPE = U
NORAD_CAT_ID   = 5560
ELEMENT_SET_NO = 999
REV_AT_EPOCH   = 85971
BSTAR          = .11723077E-3
MEAN_MOTION_DOT = .461E-5
MEAN_MOTION_DDOT = 0

CCSDS_OMM_VERS = 2.0
CREATION_DATE  = 
ORIGINATOR     = 

OBJECT_NAME    = SL-8 R/B
OBJECT_ID      = 1971-119B
CENTER_NAME    = EARTH
REF_FRAME      = TEME
TIME_SYSTEM    = UTC
MEAN_ELEMENT_THEORY = SGP/SGP4

EPOCH          = 2026-02-19T21:52:16.095360
MEAN_MOTION    = 14.37283159
ECCENTRICITY   = .0552103
INCLINATION    = 73.8859
RA_OF_ASC_NODE = 208.9346
ARG_OF_PERICENTER = 179.2383
MEAN_ANOMALY   = 180.9754

EPHEMERIS_TYPE = 0
CLASSIFICATION_TYPE = U
NORAD_CAT_ID   = 5730
ELEMENT_SET_NO = 999
REV_AT_EPOCH   = 65293
BSTAR          = .74758E-3
MEAN_MOTION_DOT = .14412E-3
MEAN_MOTION_DDOT = 0

CCSDS_OMM_VERS = 2.0
CREATION_DATE  = 
ORIGINATOR     = 

OBJECT_NAME    = OAO 3 (COPERNICUS)
OBJECT_ID      = 1972-065A
CENTER_NAME    = EARTH
REF_FRAME      = TEME
TIME_SYSTEM    = UTC
MEAN_ELEMENT_THEORY = SGP/SGP4

EPOCH          = 2026-02-20T00:29:12.016608
MEAN_MOTION    = 14.59981344
ECCENTRICITY   = .0006401
INCLINATION    = 35.0065
RA_OF_ASC_NODE = 37.9818
ARG_OF_PERICENTER = 10.6969
MEAN_ANOMALY   = 32.0025

EPHEMERIS_TYPE = 0
CLASSIFICATION_TYPE = U
NORAD_CAT_ID   = 6153
ELEMENT_SET_NO = 999
REV_AT_EPOCH   = 84361
BSTAR          = .76446E-4
MEAN_MOTION_DOT = .351E-5
MEAN_MOTION_DDOT = 0

